[{"OBJECT_NAME":"STARLINK-5473","OBJECT_ID":"2023-021AM","EPOCH":"2026-03-09T16:20:51.896544","MEAN_MOTION":14.98332272,"ECCENTRICITY":0.00032059,"INCLINATION":70.0014,"RA_OF_ASC_NODE":164.464,"ARG_OF_PERICENTER":269.2731,"MEAN_ANOMALY":90.8061,"EPHEMERIS_TYPE":0,"CLASSIFICATION_TYPE":"U","NORAD_CAT_ID":55663,"ELEMENT_SET_NO":999,"REV_AT_EPOCH":16927,"BSTAR":-1.0487234e-5,"MEAN_MOTION_DOT":-2.18e-6,"MEAN_MOTION_DDOT":0},{"OBJECT_NAME":"UNKNOWN","OBJECT_ID":"","EPOCH":"2026-03-08T12:59:39.172704","MEAN_MOTION":15.0131728,"ECCENTRICITY":0.00204305,"INCLINATION":86.3534,"RA_OF_ASC_NODE":358.469,"ARG_OF_PERICENTER":121.5673,"MEAN_ANOMALY":238.7558,"EPHEMERIS_TYPE":0,"CLASSIFICATION_TYPE":"U","NORAD_CAT_ID":270086,"ELEMENT_SET_NO":999,"REV_AT_EPOCH":9441,"BSTAR":0.0053525659,"MEAN_MOTION_DOT":0.00069778,"MEAN_MOTION_DDOT":0}]
